{
  "type": "FeatureCollection",
  "features": [
    {
      "type": "Feature",
      "properties": {
        "norad_id": 39617,
        "name": "ASTRA 5B (EGNOS/PRN 123)",
        "group": "gnss",
        "lat": 0.03766537561667444,
        "lon": 157.76146090592894,
        "alt_km": 35790.84645698705,
        "timestamp": "2025-12-07T03:52:32.738185+00:00",
        "meta_object_name": "ASTRA 5B (EGNOS/PRN 123)",
        "meta_object_id": "2014-011B",
        "meta_epoch": "2025-12-06T12:03:58.768992",
        "meta_mean_motion": 1.00268771,
        "meta_eccentricity": 0.00045813,
        "meta_inclination": 0.0511,
        "meta_ra_of_asc_node": 21.9947,
        "meta_arg_of_pericenter": 237.7107,
        "meta_mean_anomaly": 20.3326,
        "meta_ephemeris_type": 0,
        "meta_classification_type": "U",
        "meta_norad_cat_id": 39617,
        "meta_element_set_no": 999,
        "meta_rev_at_epoch": 4273,
        "meta_bstar": 0,
        "meta_mean_motion_dot": 1.44e-06,
        "meta_mean_motion_ddot": 0,
        "tle_line1": "1 39617U 14011B   25340.50276353  .00000144  00000+0  00000+0 0  9995",
        "tle_line2": "2 39617   0.0511  21.9947 0004581 237.7107  20.3326  1.00268771 42736"
      },
      "geometry": {
        "type": "Point",
        "coordinates": [
          157.76146090592894,
          0.03766537561667444
        ]
      }
    },
    {
      "type": "Feature",
      "properties": {
        "norad_id": 39620,
        "name": "COSMOS 2492 (754)",
        "group": "gnss",
        "lat": 10.507123171416449,
        "lon": 135.57621429703,
        "alt_km": 19157.66413953557,
        "timestamp": "2025-12-07T03:52:32.738196+00:00",
        "meta_object_name": "COSMOS 2492 (754)",
        "meta_object_id": "2014-012A",
        "meta_epoch": "2025-12-02T17:14:30.403680",
        "meta_mean_motion": 2.13103072,
        "meta_eccentricity": 0.00141646,
        "meta_inclination": 65.4134,
        "meta_ra_of_asc_node": 320.6107,
        "meta_arg_of_pericenter": 311.0276,
        "meta_mean_anomaly": 48.8557,
        "meta_ephemeris_type": 0,
        "meta_classification_type": "U",
        "meta_norad_cat_id": 39620,
        "meta_element_set_no": 999,
        "meta_rev_at_epoch": 9105,
        "meta_bstar": 0,
        "meta_mean_motion_dot": -3.6e-07,
        "meta_mean_motion_ddot": 0,
        "tle_line1": "1 39620U 14012A   25336.71840745 -.00000036  00000+0  00000+0 0  9991",
        "tle_line2": "2 39620  65.4134 320.6107 0014164 311.0276  48.8557  2.13103072 91051"
      },
      "geometry": {
        "type": "Point",
        "coordinates": [
          135.57621429703,
          10.507123171416449
        ]
      }
    },
    {
      "type": "Feature",
      "properties": {
        "norad_id": 39635,
        "name": "IRNSS-1B",
        "group": "gnss",
        "lat": -23.046170206330547,
        "lon": -166.8010529572394,
        "alt_km": 35827.438404986875,
        "timestamp": "2025-12-07T03:52:32.738222+00:00",
        "meta_object_name": "IRNSS-1B",
        "meta_object_id": "2014-017A",
        "meta_epoch": "2025-12-04T19:28:38.496288",
        "meta_mean_motion": 1.00275997,
        "meta_eccentricity": 0.0017633,
        "meta_inclination": 28.8387,
        "meta_ra_of_asc_node": 243.7276,
        "meta_arg_of_pericenter": 183.5453,
        "meta_mean_anomaly": 353.8193,
        "meta_ephemeris_type": 0,
        "meta_classification_type": "U",
        "meta_norad_cat_id": 39635,
        "meta_element_set_no": 999,
        "meta_rev_at_epoch": 4284,
        "meta_bstar": 0,
        "meta_mean_motion_dot": 1.26e-06,
        "meta_mean_motion_ddot": 0,
        "tle_line1": "1 39635U 14017A   25338.81155667  .00000126  00000+0  00000+0 0  9996",
        "tle_line2": "2 39635  28.8387 243.7276 0017633 183.5453 353.8193  1.00275997 42844"
      },
      "geometry": {
        "type": "Point",
        "coordinates": [
          -166.8010529572394,
          -23.046170206330547
        ]
      }
    },
    {
      "type": "Feature",
      "properties": {
        "norad_id": 39727,
        "name": "LUCH 5V (SDCM/PRN 141)",
        "group": "gnss",
        "lat": 1.759533109002656,
        "lon": -130.86855071155748,
        "alt_km": 35772.206930613094,
        "timestamp": "2025-12-07T03:52:32.738237+00:00",
        "meta_object_name": "LUCH 5V (SDCM/PRN 141)",
        "meta_object_id": "2014-023A",
        "meta_epoch": "2025-12-06T07:16:03.844992",
        "meta_mean_motion": 1.00270891,
        "meta_eccentricity": 0.00045983,
        "meta_inclination": 4.6526,
        "meta_ra_of_asc_node": 71.5937,
        "meta_arg_of_pericenter": 201.692,
        "meta_mean_anomaly": 5.8537,
        "meta_ephemeris_type": 0,
        "meta_classification_type": "U",
        "meta_norad_cat_id": 39727,
        "meta_element_set_no": 999,
        "meta_rev_at_epoch": 4242,
        "meta_bstar": 0,
        "meta_mean_motion_dot": -2.64e-06,
        "meta_mean_motion_ddot": 0,
        "tle_line1": "1 39727U 14023A   25340.30282228 -.00000264  00000+0  00000+0 0  9990",
        "tle_line2": "2 39727   4.6526  71.5937 0004598 201.6920   5.8537  1.00270891 42429"
      },
      "geometry": {
        "type": "Point",
        "coordinates": [
          -130.86855071155748,
          1.759533109002656
        ]
      }
    },
    {
      "type": "Feature",
      "properties": {
        "norad_id": 39741,
        "name": "GPS BIIF-6  (PRN 06)",
        "group": "gnss",
        "lat": 51.74882897815321,
        "lon": 102.12111225705563,
        "alt_km": 20267.35886877849,
        "timestamp": "2025-12-07T03:52:32.738249+00:00",
        "meta_object_name": "GPS BIIF-6  (PRN 06)",
        "meta_object_id": "2014-026A",
        "meta_epoch": "2025-12-06T12:15:32.711328",
        "meta_mean_motion": 2.00561644,
        "meta_eccentricity": 0.00390117,
        "meta_inclination": 56.5859,
        "meta_ra_of_asc_node": 339.0187,
        "meta_arg_of_pericenter": 318.329,
        "meta_mean_anomaly": 41.3876,
        "meta_ephemeris_type": 0,
        "meta_classification_type": "U",
        "meta_norad_cat_id": 39741,
        "meta_element_set_no": 999,
        "meta_rev_at_epoch": 8467,
        "meta_bstar": 0,
        "meta_mean_motion_dot": -7.9e-07,
        "meta_mean_motion_ddot": 0,
        "tle_line1": "1 39741U 14026A   25340.51079527 -.00000079  00000+0  00000+0 0  9992",
        "tle_line2": "2 39741  56.5859 339.0187 0039011 318.3290  41.3876  2.00561644 84677"
      },
      "geometry": {
        "type": "Point",
        "coordinates": [
          102.12111225705563,
          51.74882897815321
        ]
      }
    },
    {
      "type": "Feature",
      "properties": {
        "norad_id": 40001,
        "name": "COSMOS 2500 (755)",
        "group": "gnss",
        "lat": 32.61444100054556,
        "lon": -22.702474730222722,
        "alt_km": 19146.771573937785,
        "timestamp": "2025-12-07T03:52:32.738269+00:00",
        "meta_object_name": "COSMOS 2500 (755)",
        "meta_object_id": "2014-032A",
        "meta_epoch": "2025-12-06T04:12:43.488576",
        "meta_mean_motion": 2.13105869,
        "meta_eccentricity": 0.00082176,
        "meta_inclination": 65.3471,
        "meta_ra_of_asc_node": 320.256,
        "meta_arg_of_pericenter": 219.1837,
        "meta_mean_anomaly": 140.7512,
        "meta_ephemeris_type": 0,
        "meta_classification_type": "U",
        "meta_norad_cat_id": 40001,
        "meta_element_set_no": 999,
        "meta_rev_at_epoch": 8934,
        "meta_bstar": 0,
        "meta_mean_motion_dot": -4.9e-07,
        "meta_mean_motion_ddot": 0,
        "tle_line1": "1 40001U 14032A   25340.17550334 -.00000049  00000+0  00000+0 0  9999",
        "tle_line2": "2 40001  65.3471 320.2560 0008217 219.1837 140.7512  2.13105869 89349"
      },
      "geometry": {
        "type": "Point",
        "coordinates": [
          -22.702474730222722,
          32.61444100054556
        ]
      }
    },
    {
      "type": "Feature",
      "properties": {
        "norad_id": 40105,
        "name": "GPS BIIF-7  (PRN 09)",
        "group": "gnss",
        "lat": 36.47216006276656,
        "lon": 126.9782932391161,
        "alt_km": 20151.812106552312,
        "timestamp": "2025-12-07T03:52:32.738289+00:00",
        "meta_object_name": "GPS BIIF-7  (PRN 09)",
        "meta_object_id": "2014-045A",
        "meta_epoch": "2025-12-05T14:26:16.975968",
        "meta_mean_motion": 2.00571979,
        "meta_eccentricity": 0.00328896,
        "meta_inclination": 55.2248,
        "meta_ra_of_asc_node": 96.1837,
        "meta_arg_of_pericenter": 119.6741,
        "meta_mean_anomaly": 240.6258,
        "meta_ephemeris_type": 0,
        "meta_classification_type": "U",
        "meta_norad_cat_id": 40105,
        "meta_element_set_no": 999,
        "meta_rev_at_epoch": 8219,
        "meta_bstar": 0,
        "meta_mean_motion_dot": -1.2e-07,
        "meta_mean_motion_ddot": 0,
        "tle_line1": "1 40105U 14045A   25339.60158537 -.00000012  00000+0  00000+0 0  9993",
        "tle_line2": "2 40105  55.2248  96.1837 0032889 119.6741 240.6258  2.00571979 82198"
      },
      "geometry": {
        "type": "Point",
        "coordinates": [
          126.9782932391161,
          36.47216006276656
        ]
      }
    }
  ]
}